start=new Date('2022-07-14T00:00:00.000Z').valueOf();
sats=[{"GP_ID":"208036736","TLE_LINE1":"1 50204U 21125BA  22194.19706021  .00004570  00000-0  30492-3 0  9993","PERIOD":"95.437","DECAY_DATE":null,"CLASSIFICATION_TYPE":"U","TIME_SYSTEM":"UTC","ARG_OF_PERICENTER":"57.5456","SITE":"AFWTR","OBJECT_NAME":"STARLINK-3254","ELEMENT_SET_NO":"999","LAUNCH_DATE":"2021-12-18","REF_FRAME":"TEME","APOAPSIS":"541.432","MEAN_ANOMALY":"302.5779","COUNTRY_CODE":"US","ECCENTRICITY":"0.00025050","PERIAPSIS":"537.967","MEAN_MOTION_DOT":"0.00004570","FILE":"3512925","NORAD_CAT_ID":"50204","MEAN_ELEMENT_THEORY":"SGP4","TLE_LINE2":"2 50204  53.2195 114.3847 0002505  57.5456 302.5779 15.08855006 35177","REV_AT_EPOCH":"3517","EPHEMERIS_TYPE":"0","OBJECT_ID":"2021-125BA","BSTAR":"0.00030492000000","SEMIMAJOR_AXIS":"6917.835","EPOCH":"2022-07-13T04:43:46.002144","OBJECT_TYPE":"PAYLOAD","RA_OF_ASC_NODE":"114.3847","MEAN_MOTION":"15.08855006","MEAN_MOTION_DDOT":"0.0000000000000","INCLINATION":"53.2195","CENTER_NAME":"EARTH","RCS_SIZE":"LARGE"},{"RA_OF_ASC_NODE":"81.1364","MEAN_MOTION_DDOT":"0.0000000000000","MEAN_MOTION":"15.08824357","INCLINATION":"53.2174","RCS_SIZE":"LARGE","CENTER_NAME":"EARTH","MEAN_ANOMALY":"211.2356","PERIAPSIS":"538.663","ECCENTRICITY":"0.00016340","COUNTRY_CODE":"US","NORAD_CAT_ID":"50205","FILE":"3513188","MEAN_MOTION_DOT":"-0.00008967","OBJECT_ID":"2021-125BB","REV_AT_EPOCH":"130","EPHEMERIS_TYPE":"0","MEAN_ELEMENT_THEORY":"SGP4","TLE_LINE2":"2 50205  53.2174  81.1364 0001634  59.6231 211.2356 15.08824357  1306","SEMIMAJOR_AXIS":"6917.928","EPOCH":"2022-07-13T22:00:00.999936","BSTAR":"-0.00054625000000","OBJECT_TYPE":"PAYLOAD","REF_FRAME":"TEME","APOAPSIS":"540.924","GP_ID":"208068085","PERIOD":"95.439","TLE_LINE1":"1 50205U 21125BB  22194.91667824 -.00008967  00000-0 -54625-3 0  9991","DECAY_DATE":null,"CLASSIFICATION_TYPE":"U","TIME_SYSTEM":"UTC","ARG_OF_PERICENTER":"59.6231","SITE":"AFWTR","ELEMENT_SET_NO":"999","LAUNCH_DATE":"2021-12-18","OBJECT_NAME":"STARLINK-3260"},{"PERIAPSIS":"537.096","COUNTRY_CODE":"US","ECCENTRICITY":"0.00037270","MEAN_ANOMALY":"305.8001","EPOCH":"2022-07-13T19:07:32.733696","SEMIMAJOR_AXIS":"6917.809","BSTAR":"0.00024545000000","OBJECT_TYPE":"PAYLOAD","NORAD_CAT_ID":"50206","FILE":"3513188","MEAN_MOTION_DOT":"0.00003622","OBJECT_ID":"2021-125BC","REV_AT_EPOCH":"3313","EPHEMERIS_TYPE":"0","MEAN_ELEMENT_THEORY":"SGP4","TLE_LINE2":"2 50206  53.2196 111.6895 0003727  54.3337 305.8001 15.08863426 33136","MEAN_MOTION_DDOT":"0.0000000000000","MEAN_MOTION":"15.08863426","INCLINATION":"53.2196","RA_OF_ASC_NODE":"111.6895","RCS_SIZE":"LARGE","CENTER_NAME":"EARTH","TLE_LINE1":"1 50206U 21125BC  22194.79690664  .00003622  00000-0  24545-3 0  9995","DECAY_DATE":null,"PERIOD":"95.436","CLASSIFICATION_TYPE":"U","GP_ID":"208068827","ELEMENT_SET_NO":"999","LAUNCH_DATE":"2021-12-18","OBJECT_NAME":"STARLINK-3258","TIME_SYSTEM":"UTC","ARG_OF_PERICENTER":"54.3337","SITE":"AFWTR","REF_FRAME":"TEME","APOAPSIS":"542.252"},{"INCLINATION":"53.2188","MEAN_MOTION_DDOT":"0.0000000000000","MEAN_MOTION":"15.08843513","RA_OF_ASC_NODE":"111.9655","RCS_SIZE":"LARGE","CENTER_NAME":"EARTH","PERIAPSIS":"537.975","ECCENTRICITY":"0.00025430","COUNTRY_CODE":"US","MEAN_ANOMALY":"315.3244","OBJECT_TYPE":"PAYLOAD","EPOCH":"2022-07-13T17:37:27.715584","SEMIMAJOR_AXIS":"6917.870","BSTAR":"-0.00003577900000","REV_AT_EPOCH":"3319","EPHEMERIS_TYPE":"0","OBJECT_ID":"2021-125BD","MEAN_ELEMENT_THEORY":"SGP4","TLE_LINE2":"2 50207  53.2188 111.9655 0002543  44.7953 315.3244 15.08843513 33193","MEAN_MOTION_DOT":"-0.00000858","FILE":"3513188","NORAD_CAT_ID":"50207","REF_FRAME":"TEME","APOAPSIS":"541.494","CLASSIFICATION_TYPE":"U","DECAY_DATE":null,"TLE_LINE1":"1 50207U 21125BD  22194.73434856 -.00000858  00000-0 -35779-4 0  9991","PERIOD":"95.437","GP_ID":"208067084","LAUNCH_DATE":"2021-12-18","ELEMENT_SET_NO":"999","OBJECT_NAME":"STARLINK-3262","SITE":"AFWTR","TIME_SYSTEM":"UTC","ARG_OF_PERICENTER":"44.7953"},{"REF_FRAME":"TEME","APOAPSIS":"540.875","CLASSIFICATION_TYPE":"U","PERIOD":"95.437","TLE_LINE1":"1 50803U 22001A   22194.85118863 -.00000660  00000-0 -23354-4 0  9994","DECAY_DATE":null,"GP_ID":"208068860","OBJECT_NAME":"STARLINK-3321","ELEMENT_SET_NO":"999","LAUNCH_DATE":"2022-01-06","SITE":"AFETR","TIME_SYSTEM":"UTC","ARG_OF_PERICENTER":"69.3288","INCLINATION":"53.2181","MEAN_MOTION":"15.08847231","MEAN_MOTION_DDOT":"0.0000000000000","RA_OF_ASC_NODE":"41.4330","RCS_SIZE":"LARGE","CENTER_NAME":"EARTH","ECCENTRICITY":"0.00016650","COUNTRY_CODE":"US","PERIAPSIS":"538.571","MEAN_ANOMALY":"290.7883","OBJECT_TYPE":"PAYLOAD","BSTAR":"-0.00002335400000","SEMIMAJOR_AXIS":"6917.858","EPOCH":"2022-07-13T20:25:42.697632","TLE_LINE2":"2 50803  53.2181  41.4330 0001665  69.3288 290.7883 15.08847231 28890","MEAN_ELEMENT_THEORY":"SGP4","OBJECT_ID":"2022-001A","REV_AT_EPOCH":"2889","EPHEMERIS_TYPE":"0","FILE":"3513188","MEAN_MOTION_DOT":"-0.00000660","NORAD_CAT_ID":"50803"},{"REF_FRAME":"TEME","APOAPSIS":"540.849","GP_ID":"208067117","TLE_LINE1":"1 50804U 22001B   22194.81898612 -.00000394  00000-0 -66818-5 0  9995","DECAY_DATE":null,"PERIOD":"95.437","CLASSIFICATION_TYPE":"U","ARG_OF_PERICENTER":"69.0117","TIME_SYSTEM":"UTC","SITE":"AFETR","ELEMENT_SET_NO":"999","LAUNCH_DATE":"2022-01-06","OBJECT_NAME":"STARLINK-3323","RA_OF_ASC_NODE":"31.5844","MEAN_MOTION_DDOT":"0.0000000000000","MEAN_MOTION":"15.08842783","INCLINATION":"53.2192","CENTER_NAME":"EARTH","RCS_SIZE":"LARGE","MEAN_ANOMALY":"291.1047","PERIAPSIS":"538.625","ECCENTRICITY":"0.00016070","COUNTRY_CODE":"US","NORAD_CAT_ID":"50804","FILE":"3513188","MEAN_MOTION_DOT":"-0.00000394","EPHEMERIS_TYPE":"0","REV_AT_EPOCH":"2902","OBJECT_ID":"2022-001B","MEAN_ELEMENT_THEORY":"SGP4","TLE_LINE2":"2 50804  53.2192  31.5844 0001607  69.0117 291.1047 15.08842783 29027","SEMIMAJOR_AXIS":"6917.872","EPOCH":"2022-07-13T19:39:20.400768","BSTAR":"-0.00000668180000","OBJECT_TYPE":"PAYLOAD"},{"RA_OF_ASC_NODE":"31.6006","INCLINATION":"53.2169","MEAN_MOTION":"15.08857508","MEAN_MOTION_DDOT":"0.0000000000000","CENTER_NAME":"EARTH","RCS_SIZE":"LARGE","MEAN_ANOMALY":"288.7205","COUNTRY_CODE":"US","ECCENTRICITY":"0.00011900","PERIAPSIS":"538.869","MEAN_ELEMENT_THEORY":"SGP4","TLE_LINE2":"2 50805  53.2169  31.6006 0001190  71.3916 288.7205 15.08857508 29022","EPHEMERIS_TYPE":"0","REV_AT_EPOCH":"2902","OBJECT_ID":"2022-001C","MEAN_MOTION_DOT":"-0.00001537","FILE":"3513188","NORAD_CAT_ID":"50805","OBJECT_TYPE":"PAYLOAD","BSTAR":"-0.00007845100000","EPOCH":"2022-07-13T19:34:02.734752","SEMIMAJOR_AXIS":"6917.827","REF_FRAME":"TEME","APOAPSIS":"540.515","GP_ID":"208067366","CLASSIFICATION_TYPE":"U","DECAY_DATE":null,"TLE_LINE1":"1 50805U 22001C   22194.81530943 -.00001537  00000-0 -78451-4 0  9991","PERIOD":"95.436","SITE":"AFETR","TIME_SYSTEM":"UTC","ARG_OF_PERICENTER":"71.3916","OBJECT_NAME":"STARLINK-3333","ELEMENT_SET_NO":"999","LAUNCH_DATE":"2022-01-06"},{"GP_ID":"208068617","CLASSIFICATION_TYPE":"U","DECAY_DATE":null,"TLE_LINE1":"1 50806U 22001D   22194.81162872 -.00000812  00000-0 -32931-4 0  9992","PERIOD":"95.437","SITE":"AFETR","TIME_SYSTEM":"UTC","ARG_OF_PERICENTER":"72.6530","OBJECT_NAME":"STARLINK-3335","LAUNCH_DATE":"2022-01-06","ELEMENT_SET_NO":"999","REF_FRAME":"TEME","APOAPSIS":"540.774","MEAN_ANOMALY":"287.4627","COUNTRY_CODE":"US","ECCENTRICITY":"0.00015060","PERIAPSIS":"538.691","TLE_LINE2":"2 50806  53.2163  31.6149 0001506  72.6530 287.4627 15.08844200 29021","MEAN_ELEMENT_THEORY":"SGP4","REV_AT_EPOCH":"2902","OBJECT_ID":"2022-001D","EPHEMERIS_TYPE":"0","MEAN_MOTION_DOT":"-0.00000812","FILE":"3513188","NORAD_CAT_ID":"50806","OBJECT_TYPE":"PAYLOAD","BSTAR":"-0.00003293100000","EPOCH":"2022-07-13T19:28:44.721408","SEMIMAJOR_AXIS":"6917.868","RA_OF_ASC_NODE":"31.6149","INCLINATION":"53.2163","MEAN_MOTION":"15.08844200","MEAN_MOTION_DDOT":"0.0000000000000","CENTER_NAME":"EARTH","RCS_SIZE":"LARGE"},{"APOAPSIS":"540.775","REF_FRAME":"TEME","ARG_OF_PERICENTER":"67.6032","TIME_SYSTEM":"UTC","SITE":"AFETR","OBJECT_NAME":"STARLINK-3353","LAUNCH_DATE":"2022-01-06","ELEMENT_SET_NO":"999","GP_ID":"208068362","PERIOD":"95.437","TLE_LINE1":"1 50807U 22001E   22194.79690663  .00000346  00000-0  39825-4 0  9993","DECAY_DATE":null,"CLASSIFICATION_TYPE":"U","CENTER_NAME":"EARTH","RCS_SIZE":"LARGE","RA_OF_ASC_NODE":"31.6998","MEAN_MOTION":"15.08849535","MEAN_MOTION_DDOT":"0.0000000000000","INCLINATION":"53.2177","FILE":"3513188","MEAN_MOTION_DOT":"0.00000346","NORAD_CAT_ID":"50807","TLE_LINE2":"2 50807  53.2177  31.6998 0001531  67.6032 292.5123 15.08849535 29022","MEAN_ELEMENT_THEORY":"SGP4","REV_AT_EPOCH":"2902","EPHEMERIS_TYPE":"0","OBJECT_ID":"2022-001E","BSTAR":"0.00003982500000","EPOCH":"2022-07-13T19:07:32.732832","SEMIMAJOR_AXIS":"6917.851","OBJECT_TYPE":"PAYLOAD","MEAN_ANOMALY":"292.5123","ECCENTRICITY":"0.00015310","COUNTRY_CODE":"US","PERIAPSIS":"538.657"},{"DECAY_DATE":null,"TLE_LINE1":"1 50808U 22001F   22194.80426961  .00000446  00000-0  46114-4 0  9994","PERIOD":"95.437","CLASSIFICATION_TYPE":"U","GP_ID":"208067616","ELEMENT_SET_NO":"999","LAUNCH_DATE":"2022-01-06","OBJECT_NAME":"STARLINK-3355","ARG_OF_PERICENTER":"65.5932","TIME_SYSTEM":"UTC","SITE":"AFETR","REF_FRAME":"TEME","APOAPSIS":"540.822","PERIAPSIS":"538.600","ECCENTRICITY":"0.00016060","COUNTRY_CODE":"US","MEAN_ANOMALY":"294.5227","EPOCH":"2022-07-13T19:18:08.894304","SEMIMAJOR_AXIS":"6917.846","BSTAR":"0.00004611400000","OBJECT_TYPE":"PAYLOAD","NORAD_CAT_ID":"50808","FILE":"3513188","MEAN_MOTION_DOT":"0.00000446","OBJECT_ID":"2022-001F","REV_AT_EPOCH":"2902","EPHEMERIS_TYPE":"0","TLE_LINE2":"2 50808  53.2163  31.6541 0001606  65.5932 294.5227 15.08851120 29021","MEAN_ELEMENT_THEORY":"SGP4","MEAN_MOTION_DDOT":"0.0000000000000","MEAN_MOTION":"15.08851120","INCLINATION":"53.2163","RA_OF_ASC_NODE":"31.6541","CENTER_NAME":"EARTH","RCS_SIZE":"LARGE"}];
